[{"OBJECT_NAME":"STARLINK-4660","OBJECT_ID":"2022-104X","EPOCH":"2026-03-09T17:14:22.368480","MEAN_MOTION":15.08851981,"ECCENTRICITY":0.0001148,"INCLINATION":53.2154,"RA_OF_ASC_NODE":238.6921,"ARG_OF_PERICENTER":108.6927,"MEAN_ANOMALY":251.419,"EPHEMERIS_TYPE":0,"CLASSIFICATION_TYPE":"U","NORAD_CAT_ID":53609,"ELEMENT_SET_NO":999,"REV_AT_EPOCH":19569,"BSTAR":-0.00019058586,"MEAN_MOTION_DOT":-3.321e-5,"MEAN_MOTION_DDOT":0},{"OBJECT_NAME":"RAPIDEYE 1","OBJECT_ID":"2008-040C","EPOCH":"2026-03-09T15:08:44.758176","MEAN_MOTION":15.03049091,"ECCENTRICITY":0.0028174,"INCLINATION":97.4223,"RA_OF_ASC_NODE":100.7722,"ARG_OF_PERICENTER":157.1968,"MEAN_ANOMALY":203.0516,"EPHEMERIS_TYPE":0,"CLASSIFICATION_TYPE":"U","NORAD_CAT_ID":33314,"ELEMENT_SET_NO":999,"REV_AT_EPOCH":95070,"BSTAR":0.00023277,"MEAN_MOTION_DOT":3.104e-5,"MEAN_MOTION_DDOT":0}]
